NORAD_CAT_ID,OBJECT_NAME,OBJECT_TYPE,EPOCH,MEAN_MOTION,ECCENTRICITY,INCLINATION,RA_OF_ASC_NODE,ARG_OF_PERICENTER,MEAN_ANOMALY,BSTAR,MEAN_MOTION_DOT,MEAN_MOTION_DDOT,TLE_LINE0,TLE_LINE1,TLE_LINE2,SEMIMAJOR_AXIS,PERIOD,APOGEE,PERIGEE,DECAYED
55950.0,STARLINK-5911,PAYLOAD,2023-09-08 22:00:00,15.51224236,0.0003544,69.9997,49.0356,279.1662,294.919,0.00011461,6.573e-05,0.0,0 STARLINK-5911,1 55950U 23037AN  23251.91667824  .00006573  00000-0  11461-3 0  9992,2 55950  69.9997  49.0356 0003544 279.1662 294.9190 15.51224236  5810,6791.288,92.83,415.559,410.746,0.0
55950.0,STARLINK-5911,PAYLOAD,2023-09-09 06:00:00,15.51183401,0.00035,69.9998,48.1244,273.0819,1.935,0.00097474,0.00057425,0.0,0 STARLINK-5911,1 55950U 23037AN  23252.25001157  .00057425  00000-0  97474-3 0  9991,2 55950  69.9998  48.1244 0003500 273.0819   1.9350 15.51183401 28060,6791.407,92.832,415.649,410.895,0.0
55950.0,STARLINK-5911,PAYLOAD,2023-09-09 14:00:01,15.51443163,0.0003614,70.0,47.2128,272.91,62.9639,-0.0164,-0.00884006,0.0,0 STARLINK-5911,1 55950U 23037AN  23252.58334491 -.00884006  00000-0 -16400-1 0  9990,2 55950  70.0000  47.2128 0003614 272.9100  62.9639 15.51443163 28112,6790.649,92.817,414.968,410.06,0.0
55950.0,STARLINK-5911,PAYLOAD,2023-09-10 06:00:00,15.50120663,0.0003471,69.9996,45.3913,274.4252,182.265,-0.016564,-0.00854354,0.0,0 STARLINK-5911,1 55950U 23037AN  23253.25001157 -.00854354  00000-0 -16564-1 0  9999,2 55950  69.9996  45.3913 0003471 274.4252 182.2650 15.50120663 28216,6794.51,92.896,418.734,414.017,0.0
55950.0,STARLINK-5911,PAYLOAD,2023-09-10 14:00:01,15.49530034,0.0003444,70.0,44.4817,275.0128,240.8916,-0.018871,-0.00957372,0.0,0 STARLINK-5911,1 55950U 23037AN  23253.58334491 -.00957372  00000-0 -18871-1 0  9992,2 55950  70.0000  44.4817 0003444 275.0128 240.8916 15.49530034  6012,6796.237,92.931,420.443,415.761,0.0
55950.0,STARLINK-5911,PAYLOAD,2023-09-10 22:00:00,15.48847539,0.0003401,69.9996,43.573,277.6462,296.7239,-0.018283,-0.00897252,0.0,0 STARLINK-5911,1 55950U 23037AN  23253.91667824 -.00897252  00000-0 -18283-1 0  9995,2 55950  69.9996  43.5730 0003401 277.6462 296.7239 15.48847539 28314,6798.233,92.972,422.41,417.786,0.0
55950.0,STARLINK-5911,PAYLOAD,2023-09-11 14:00:01,15.47572239,0.0003557,69.9999,41.7583,274.3668,54.5523,-0.020213,-0.0095735,0.0,0 STARLINK-5911,1 55950U 23037AN  23254.58334491 -.00957350  00000-0 -20213-1 0  9992,2 55950  69.9999  41.7583 0003557 274.3668  54.5523 15.47572239 28426,6801.968,93.049,426.252,421.413,0.0
55950.0,STARLINK-5911,PAYLOAD,2023-09-12 06:00:00,15.46199587,0.000344,69.9999,39.9475,275.5947,164.7774,-0.018623,-0.00838682,0.0,0 STARLINK-5911,1 55950U 23037AN  23255.25001157 -.00838682  00000-0 -18623-1 0  9995,2 55950  69.9999  39.9475 0003440 275.5947 164.7774 15.46199587 28522,6805.993,93.132,430.199,425.516,0.0
55950.0,STARLINK-5911,PAYLOAD,2023-09-12 14:00:01,15.4561066,0.0003479,70.0,39.0435,278.2034,216.7561,-0.021528,-0.00953021,0.0,0 STARLINK-5911,1 55950U 23037AN  23255.58335648 -.00953021  00000-0 -21528-1 0  9999,2 55950  70.0000  39.0435 0003479 278.2034 216.7561 15.45610660  5957,6807.721,93.167,431.955,427.218,0.0
55950.0,STARLINK-5911,PAYLOAD,2023-09-12 22:00:00,15.44943872,0.0003467,69.9997,38.1402,281.1117,267.5467,-0.021344,-0.00925841,0.0,0 STARLINK-5911,1 55950U 23037AN  23255.91667824 -.00925841  00000-0 -21344-1 0  9995,2 55950  69.9997  38.1402 0003467 281.1117 267.5467 15.44943872 28626,6809.68,93.207,433.906,429.184,0.0
55950.0,STARLINK-5911,PAYLOAD,2023-09-13 14:00:01,15.43649288,0.0003614,70.0004,36.3365,276.7448,17.0844,-0.022827,-0.00945729,0.0,0 STARLINK-5911,1 55950U 23037AN  23256.58334491 -.00945729  00000-0 -22827-1 0  9994,2 55950  70.0004  36.3365 0003614 276.7448  17.0844 15.43649288  5925,6813.487,93.285,437.814,432.889,0.0
55950.0,STARLINK-5911,PAYLOAD,2023-09-13 22:00:00,15.42986181,0.0003737,70.0001,35.4359,280.8795,64.3634,-0.022726,-0.00922674,0.0,0 STARLINK-5911,1 55950U 23037AN  23256.91667824 -.00922674  00000-0 -22726-1 0  9992,2 55950  70.0001  35.4359 0003737 280.8795  64.3634 15.42986181 28788,6815.439,93.326,439.851,434.757,0.0
55950.0,STARLINK-5911,PAYLOAD,2023-09-14 14:00:01,15.41690921,0.0003472,70.0006,33.6375,277.8226,167.9632,-0.024259,-0.0094123,0.0,0 STARLINK-5911,1 55950U 23037AN  23257.58335648 -.00941230  00000-0 -24259-1 0  9994,2 55950  70.0006  33.6375 0003472 277.8226 167.9632 15.41690921  5812,6819.256,93.404,443.488,438.753,0.0
55950.0,STARLINK-5911,PAYLOAD,2023-09-14 20:00:01,15.41173473,0.0003482,70.0006,32.9639,279.5942,113.0096,-0.023261,-0.00891221,0.0,0 STARLINK-5911,1 55950U 23037AN  23257.83334491 -.00891221  00000-0 -23261-1 0  9993,2 55950  70.0006  32.9639 0003482 279.5942 113.0096 15.41173473 28923,6820.782,93.435,445.022,440.272,0.0
55950.0,STARLINK-5911,PAYLOAD,2023-09-14 22:00:00,15.41033912,0.000329,70.0004,32.7396,280.1588,214.6307,-0.024577,-0.00933502,0.0,0 STARLINK-5911,1 55950U 23037AN  23257.91667824 -.00933502  00000-0 -24577-1 0  9991,2 55950  70.0004  32.7396 0003290 280.1588 214.6307 15.41033912  5864,6821.194,93.444,445.303,440.814,0.0
55950.0,STARLINK-5911,PAYLOAD,2023-09-15 14:00:01,15.39723843,0.0003354,70.0008,30.9469,274.4406,316.1361,-0.025478,-0.00927144,0.0,0 STARLINK-5911,1 55950U 23037AN  23258.58334491 -.00927144  00000-0 -25478-1 0  9992,2 55950  70.0008  30.9469 0003354 274.4406 316.1361 15.39723843 29045,6825.062,93.523,449.216,444.638,0.0
55950.0,STARLINK-5911,PAYLOAD,2023-09-16 14:00:01,15.37769657,0.0003536,70.0011,28.2644,276.4259,91.9612,-0.0273,-0.00931419,0.0,0 STARLINK-5911,1 55950U 23037AN  23259.58334491 -.00931419  00000-0 -27300-1 0  9999,2 55950  70.0011  28.2644 0003536 276.4259  91.9612 15.37769657  6014,6830.843,93.642,455.124,450.293,0.0
55950.0,STARLINK-5911,PAYLOAD,2023-09-16 22:00:00,15.3712345,0.0003498,70.0008,27.3718,281.3234,131.4325,-0.028122,-0.00938832,0.0,0 STARLINK-5911,1 55950U 23037AN  23259.91667824 -.00938832  00000-0 -28122-1 0  9994,2 55950  70.0008  27.3718 0003498 281.3234 131.4325 15.37123450 29243,6832.758,93.681,457.013,452.232,0.0
55950.0,STARLINK-5911,PAYLOAD,2023-09-17 14:00:01,15.35812013,0.0003403,70.0014,25.5895,278.7866,220.3719,-0.029093,-0.00931554,0.0,0 STARLINK-5911,1 55950U 23037AN  23260.58334491 -.00931554  00000-0 -29093-1 0  9992,2 55950  70.0014  25.5895 0003403 278.7866 220.3719 15.35812013  6027,6836.647,93.761,460.838,456.185,0.0
55950.0,STARLINK-5911,PAYLOAD,2023-09-18 06:00:00,15.34473014,0.0003315,70.0011,23.8106,273.3762,309.0553,-0.028023,-0.00865061,0.0,0 STARLINK-5911,1 55950U 23037AN  23261.25001157 -.00865061  00000-0 -28023-1 0  9998,2 55950  70.0011  23.8106 0003315 273.3762 309.0553 15.34473014 29454,6840.623,93.843,464.756,460.221,0.0
55950.0,STARLINK-5911,PAYLOAD,2023-09-18 14:00:01,15.3385122,0.0003415,70.0014,22.9225,276.5092,346.3803,-0.030684,-0.00923491,0.0,0 STARLINK-5911,1 55950U 23037AN  23261.58334491 -.00923491  00000-0 -30684-1 0  9992,2 55950  70.0014  22.9225 0003415 276.5092 346.3803 15.33851220  5961,6842.472,93.881,466.674,462.0,0.0
55950.0,STARLINK-5911,PAYLOAD,2023-09-18 22:00:00,15.3321322,0.0003443,70.001,22.0352,278.5095,24.0521,-0.032179,-0.00946953,0.0,0 STARLINK-5911,1 55950U 23037AN  23261.91667824 -.00946953  00000-0 -32179-1 0  9997,2 55950  70.0010  22.0352 0003443 278.5095  24.0521 15.33213220 29555,6844.37,93.92,468.591,463.878,0.0
55950.0,STARLINK-5911,PAYLOAD,2023-09-19 14:00:01,15.31894887,0.0003533,70.0013,20.2633,278.4312,101.1469,-0.032645,-0.00923653,0.0,0 STARLINK-5911,1 55950U 23037AN  23262.58334491 -.00923653  00000-0 -32645-1 0  9992,2 55950  70.0013  20.2633 0003533 278.4312 101.1469 15.31894887 29652,6848.296,94.001,472.581,467.742,0.0
55950.0,STARLINK-5911,PAYLOAD,2023-09-20 14:00:01,15.29928969,0.0003358,70.0009,17.6122,278.5522,210.6775,-0.034215,-0.00911508,0.0,0 STARLINK-5911,1 55950U 23037AN  23263.58334491 -.00911508  00000-0 -34215-1 0  9994,2 55950  70.0009  17.6122 0003358 278.5522 210.6775 15.29928969  6016,6854.161,94.122,478.328,473.725,0.0
55950.0,STARLINK-5911,PAYLOAD,2023-09-20 22:00:00,15.29306719,0.0003202,70.0006,16.7302,277.5045,246.6981,-0.036741,-0.00968333,0.0,0 STARLINK-5911,1 55950U 23037AN  23263.91667824 -.00968333  00000-0 -36741-1 0  9994,2 55950  70.0006  16.7302 0003202 277.5045 246.6981 15.29306719 29858,6856.021,94.16,480.081,475.69,0.0
55950.0,STARLINK-5911,PAYLOAD,2023-09-21 14:00:01,15.27968565,0.0003334,70.0006,14.969,275.5098,316.3299,-0.036052,-0.00904725,0.0,0 STARLINK-5911,1 55950U 23037AN  23264.58334491 -.00904725  00000-0 -36052-1 0  9999,2 55950  70.0006  14.9690 0003334 275.5098 316.3299 15.27968565 29960,6860.023,94.243,484.175,479.601,0.0
55950.0,STARLINK-5911,PAYLOAD,2023-09-21 22:00:01,15.27343599,0.0003342,70.0003,14.0896,275.6579,348.8731,-0.038744,-0.00961971,0.0,0 STARLINK-5911,1 55950U 23037AN  23264.91668981 -.00961971  00000-0 -38744-1 0  9996,2 55950  70.0003  14.0896 0003342 275.6579 348.8731 15.27343599  5914,6861.894,94.281,486.052,481.466,0.0
55950.0,STARLINK-5911,PAYLOAD,2023-09-22 14:00:01,15.26013577,0.0003443,70.0005,12.3337,276.5325,50.8737,-0.038352,-0.00917884,0.0,0 STARLINK-5911,1 55950U 23037AN  23265.58334491 -.00917884  00000-0 -38352-1 0  9995,2 55950  70.0005  12.3337 0003443 276.5325  50.8737 15.26013577 30113,6865.881,94.364,490.109,485.382,0.0
55950.0,STARLINK-5911,PAYLOAD,2023-09-22 22:00:00,15.25385711,0.000346,70.0003,11.4567,277.7661,79.9225,-0.041088,-0.00961444,0.0,0 STARLINK-5911,1 55950U 23037AN  23265.91667824 -.00961444  00000-0 -41088-1 0  9992,2 55950  70.0003  11.4567 0003460 277.7661  79.9225 15.25385711  6029,6867.764,94.402,492.006,487.253,0.0
55950.0,STARLINK-5911,PAYLOAD,2023-09-23 14:00:01,15.24058958,0.0003422,70.0006,9.7058,279.2279,136.7044,-0.04085,-0.00921576,0.0,0 STARLINK-5911,1 55950U 23037AN  23266.58334491 -.00921576  00000-0 -40850-1 0  9995,2 55950  70.0006   9.7058 0003422 279.2279 136.7044 15.24058958 30260,6871.75,94.485,495.966,491.263,0.0
